NORAD_CAT_ID,OBJECT_NAME,OBJECT_TYPE,EPOCH,MEAN_MOTION,ECCENTRICITY,INCLINATION,RA_OF_ASC_NODE,ARG_OF_PERICENTER,MEAN_ANOMALY,BSTAR,MEAN_MOTION_DOT,MEAN_MOTION_DDOT,TLE_LINE0,TLE_LINE1,TLE_LINE2,SEMIMAJOR_AXIS,PERIOD,APOGEE,PERIGEE,DECAYED
50203.0,STARLINK-3257,PAYLOAD,2024-02-15 14:00:01,15.07209528,0.0001389,53.2169,19.976,88.3562,174.7038,-0.00030491,-4.922e-05,0.0,0 STARLINK-3257,1 50203U 21125AZ  24046.58334491 -.00004922  00000-0 -30491-3 0  9993,2 50203  53.2169  19.9760 0001389  88.3562 174.7038 15.07209528  5872,6922.869,95.541,545.695,543.772,0.0
50203.0,STARLINK-3257,PAYLOAD,2024-02-15 22:00:00,15.07208839,0.0001446,53.2172,18.4826,95.7023,176.9815,0.0030981,0.00047196,0.0,0 STARLINK-3257,1 50203U 21125AZ  24046.91667824  .00047196  00000-0  30981-2 0  9990,2 50203  53.2172  18.4826 0001446  95.7023 176.9815 15.07208839120005,6922.871,95.541,545.737,543.735,0.0
50203.0,STARLINK-3257,PAYLOAD,2024-02-16 06:00:00,15.07243736,0.0001464,53.2172,16.9918,80.8053,201.536,-0.0056929,-0.00085991,0.0,0 STARLINK-3257,1 50203U 21125AZ  24047.25001157 -.00085991  00000-0 -56929-2 0  9996,2 50203  53.2172  16.9918 0001464  80.8053 201.5360 15.07243736120058,6922.764,95.539,545.642,543.615,0.0
50203.0,STARLINK-3257,PAYLOAD,2024-02-16 14:00:01,15.07192262,0.0001417,53.2171,15.4982,80.0852,211.8941,-4.4283e-05,-9.57e-06,0.0,0 STARLINK-3257,1 50203U 21125AZ  24047.58334491 -.00000957  00000-0 -44283-4 0  9993,2 50203  53.2171  15.4982 0001417  80.0852 211.8941 15.07192262  5710,6922.921,95.542,545.767,543.805,0.0
50203.0,STARLINK-3257,PAYLOAD,2024-02-16 22:00:00,15.07205097,0.0001458,53.2173,14.005,90.4655,211.1248,0.0026061,0.00039609,0.0,0 STARLINK-3257,1 50203U 21125AZ  24047.91667824  .00039609  00000-0  26061-2 0  9995,2 50203  53.2173  14.0050 0001458  90.4655 211.1248 15.07205097120154,6922.882,95.541,545.757,543.738,0.0
50203.0,STARLINK-3257,PAYLOAD,2024-02-17 04:37:30,15.07199357,0.0001471,53.2197,12.7732,81.8096,278.3062,0.00016731,2.264e-05,0.0,0 STARLINK-3257,1 50203U 21125AZ  24048.19271015  .00002264  00000-0  16731-3 0  9990,2 50203  53.2197  12.7732 0001471  81.8096 278.3062 15.07199357120206,6922.9,95.541,545.783,543.746,0.0
50203.0,STARLINK-3257,PAYLOAD,2024-02-17 14:10:25,15.07205194,0.000145,53.2168,10.9858,77.7586,282.3567,2.9522e-05,1.66e-06,0.0,0 STARLINK-3257,1 50203U 21125AZ  24048.59057767  .00000166  00000-0  29522-4 0  9992,2 50203  53.2168  10.9858 0001450  77.7586 282.3567 15.07205194123405,6922.882,95.541,545.751,543.743,0.0
50203.0,STARLINK-3257,PAYLOAD,2024-02-18 04:29:49,15.07209755,9.54e-05,53.2172,8.3161,95.4507,264.6594,-1.8185e-05,-5.6e-06,0.0,0 STARLINK-3257,1 50203U 21125AZ  24049.18738116 -.00000560  00000-0 -18185-4 0  9995,2 50203  53.2172   8.3161 0000954  95.4507 264.6594 15.07209755120357,6922.868,95.541,545.393,544.072,0.0
50203.0,STARLINK-3257,PAYLOAD,2024-02-18 06:05:18,15.07219215,0.0001438,53.2165,8.0185,92.8457,267.2699,0.00013479,1.77e-05,0.0,0 STARLINK-3257,1 50203U 21125AZ  24049.25368920  .00001770  00000-0  13479-3 0  9997,2 50203  53.2165   8.0185 0001438  92.8457 267.2699 15.07219215120363,6922.839,95.54,545.699,543.708,0.0
50203.0,STARLINK-3257,PAYLOAD,2024-02-18 14:02:45,15.07219687,0.0001292,53.2173,6.5343,87.7467,272.3672,0.00011646,1.49e-05,0.0,0 STARLINK-3257,1 50203U 21125AZ  24049.58524673  .00001490  00000-0  11646-3 0  9995,2 50203  53.2173   6.5343 0001292  87.7467 272.3672 15.07219687123558,6922.837,95.54,545.597,543.808,0.0
50203.0,STARLINK-3257,PAYLOAD,2024-02-18 20:24:43,15.07210709,0.000186,53.2191,5.3487,91.3433,268.7772,0.0001985,2.74e-05,0.0,0 STARLINK-3257,1 50203U 21125AZ  24049.85050034  .00002740  00000-0  19850-3 0  9994,2 50203  53.2191   5.3487 0001860  91.3433 268.7772 15.07210709120451,6922.865,95.541,546.018,543.442,0.0
50203.0,STARLINK-3257,PAYLOAD,2024-02-19 13:55:05,15.07213984,0.0001416,53.2183,2.0796,89.6281,270.4872,6.7968e-05,7.52e-06,0.0,0 STARLINK-3257,1 50203U 21125AZ  24050.57992787  .00000752  00000-0  67968-4 0  9990,2 50203  53.2183   2.0796 0001416  89.6281 270.4872 15.07213984123707,6922.855,95.541,545.7,543.74,0.0
50203.0,STARLINK-3257,PAYLOAD,2024-02-19 20:17:02,15.07213602,7.8e-05,53.2196,0.89,97.9321,262.1759,0.00015706,2.109e-05,0.0,0 STARLINK-3257,1 50203U 21125AZ  24050.84517074  .00002109  00000-0  15706-3 0  9992,2 50203  53.2196   0.8900 0000780  97.9321 262.1759 15.07213602123747,6922.856,95.541,545.261,544.181,0.0
50203.0,STARLINK-3257,PAYLOAD,2024-02-20 04:14:09,15.07466603,0.0001713,53.2184,359.4078,92.7449,267.3738,0.0021654,0.00033068,0.0,0 STARLINK-3257,1 50203U 21125AZ  24051.17649643  .00033068  00000-0  21654-2 0  9993,2 50203  53.2184 359.4078 0001713  92.7449 267.3738 15.07466603120656,6922.082,95.525,545.132,542.761,0.0
50203.0,STARLINK-3257,PAYLOAD,2024-02-20 09:00:27,15.07558004,0.0001707,53.2187,358.5166,96.8772,263.2414,0.0028449,0.00043709,0.0,0 STARLINK-3257,1 50203U 21125AZ  24051.37532248  .00043709  00000-0  28449-2 0  9999,2 50203  53.2187 358.5166 0001707  96.8772 263.2414 15.07558004120680,6921.802,95.519,544.848,542.485,0.0
50203.0,STARLINK-3257,PAYLOAD,2024-02-20 13:46:43,15.07666455,0.0001557,53.2177,357.6247,103.6033,256.5132,0.0036431,0.00056318,0.0,0 STARLINK-3257,1 50203U 21125AZ  24051.57412035  .00056318  00000-0  36431-2 0  9992,2 50203  53.2177 357.6247 0001557 103.6033 256.5132 15.07666455123853,6921.47,95.512,544.412,542.257,0.0
50203.0,STARLINK-3257,PAYLOAD,2024-02-20 20:08:25,15.07793555,6.72e-05,53.2191,356.4357,86.9676,273.1393,0.0045898,0.00071426,0.0,0 STARLINK-3257,1 50203U 21125AZ  24051.83918111  .00071426  00000-0  45898-2 0  9991,2 50203  53.2191 356.4357 0000672  86.9676 273.1393 15.07793555120753,6921.081,95.504,543.411,542.481,0.0
50203.0,STARLINK-3257,PAYLOAD,2024-02-21 02:29:56,15.08024201,0.0002402,53.2187,355.2446,142.332,217.784,0.0061293,0.00096424,0.0,0 STARLINK-3257,1 50203U 21125AZ  24052.10412621  .00096424  00000-0  61293-2 0  9999,2 50203  53.2187 355.2446 0002402 142.3320 217.7840 15.08024201120791,6920.375,95.489,543.902,540.578,0.0
50203.0,STARLINK-3257,PAYLOAD,2024-02-21 14:00:01,15.08829615,0.0001464,53.217,353.0964,96.8641,345.9753,-0.0004427,-7.325e-05,0.0,0 STARLINK-3257,1 50203U 21125AZ  24052.58334491 -.00007325  00000-0 -44270-3 0  9990,2 50203  53.2170 353.0964 0001464  96.8641 345.9753 15.08829615120867,6917.912,95.438,540.79,538.764,0.0
50203.0,STARLINK-3257,PAYLOAD,2024-02-21 22:00:00,15.08848059,0.00016,53.2172,351.6002,95.5248,358.8823,-0.00057339,-9.404e-05,0.0,0 STARLINK-3257,1 50203U 21125AZ  24052.91667824 -.00009404  00000-0 -57339-3 0  9996,2 50203  53.2172 351.6002 0001600  95.5248 358.8823 15.08848059  5773,6917.856,95.437,540.828,538.614,0.0
50203.0,STARLINK-3257,PAYLOAD,2024-02-22 14:00:01,15.08821218,0.0001538,53.2176,348.6075,91.0294,26.5614,0.0019869,0.00031459,0.0,0 STARLINK-3257,1 50203U 21125AZ  24053.58334491  .00031459  00000-0  19869-2 0  9999,2 50203  53.2176 348.6075 0001538  91.0294  26.5614 15.08821218121016,6917.938,95.439,540.867,538.739,0.0
50203.0,STARLINK-3257,PAYLOAD,2024-02-22 22:00:00,15.08878339,0.0001629,53.2177,347.1114,94.6769,34.4914,-0.0025828,-0.00041202,0.0,0 STARLINK-3257,1 50203U 21125AZ  24053.91667824 -.00041202  00000-0 -25828-2 0  9996,2 50203  53.2177 347.1114 0001629  94.6769  34.4914 15.08878339  5852,6917.763,95.435,540.755,538.501,0.0
50203.0,STARLINK-3257,PAYLOAD,2024-02-23 06:00:00,15.08806253,0.0001567,53.2176,345.6165,91.5754,49.2233,0.0024092,0.00038227,0.0,0 STARLINK-3257,1 50203U 21125AZ  24054.25001157  .00038227  00000-0  24092-2 0  9998,2 50203  53.2176 345.6165 0001567  91.5754  49.2233 15.08806253121113,6917.984,95.44,540.933,538.764,0.0
50203.0,STARLINK-3257,PAYLOAD,2024-02-23 14:00:01,15.08812798,0.0001562,53.2178,344.1186,104.6958,47.6752,0.0026079,0.0004143,0.0,0 STARLINK-3257,1 50203U 21125AZ  24054.58334491  .00041430  00000-0  26079-2 0  9991,2 50203  53.2178 344.1186 0001562 104.6958  47.6752 15.08812798  5726,6917.964,95.439,540.909,538.748,0.0
50203.0,STARLINK-3257,PAYLOAD,2024-02-23 22:00:01,15.08863406,0.0001606,53.218,342.6227,103.882,60.1175,-0.0016653,-0.0002671,0.0,0 STARLINK-3257,1 50203U 21125AZ  24054.91668981 -.00026710  00000-0 -16653-2 0  9995,2 50203  53.2180 342.6227 0001606 103.8820  60.1175 15.08863406121210,6917.809,95.436,540.785,538.563,0.0
50203.0,STARLINK-3257,PAYLOAD,2024-02-24 14:00:01,15.08815243,0.0001432,53.2176,339.6297,103.9138,83.2878,0.0028109,0.00044701,0.0,0 STARLINK-3257,1 50203U 21125AZ  24055.58335648  .00044701  00000-0  28109-2 0  9997,2 50203  53.2176 339.6297 0001432 103.9138  83.2878 15.08815243  5873,6917.956,95.439,540.812,538.83,0.0
50203.0,STARLINK-3257,PAYLOAD,2024-02-24 22:00:00,15.08869419,0.000145,53.2177,338.1342,100.3602,98.3451,-0.0019542,-0.00031279,0.0,0 STARLINK-3257,1 50203U 21125AZ  24055.91667824 -.00031279  00000-0 -19542-2 0  9997,2 50203  53.2177 338.1342 0001450 100.3602  98.3451 15.08869419121367,6917.79,95.436,540.659,538.652,0.0
50203.0,STARLINK-3257,PAYLOAD,2024-02-25 11:25:52,15.08843892,0.0002131,53.221,335.6227,80.2369,279.8864,-2.2517e-05,-6.47e-06,0.0,0 STARLINK-3257,1 50203U 21125AZ  24056.47629711 -.00000647  00000-0 -22517-4 0  9995,2 50203  53.2210 335.6227 0002131  80.2369 279.8864 15.08843892124591,6917.868,95.437,541.208,538.259,0.0
50203.0,STARLINK-3257,PAYLOAD,2024-02-25 22:33:33,15.0883844,0.0001868,53.2208,333.5431,101.6716,258.4486,0.00029913,4.476e-05,0.0,0 STARLINK-3257,1 50203U 21125AZ  24056.93997173  .00004476  00000-0  29913-3 0  9994,2 50203  53.2208 333.5431 0001868 101.6716 258.4486 15.08838440124666,6917.885,95.438,541.042,538.458,0.0
50203.0,STARLINK-3257,PAYLOAD,2024-02-26 03:19:41,15.08858083,0.0001376,53.2183,332.6475,107.8705,252.2438,0.0002281,3.346e-05,0.0,0 STARLINK-3257,1 50203U 21125AZ  24057.13867974  .00003346  00000-0  22810-3 0  9996,2 50203  53.2183 332.6475 0001376 107.8705 252.2438 15.08858083121555,6917.825,95.436,540.642,538.738,0.0
